1   674U 63039A   25161.65529866  .00000269  00000-0  00000+0 0  9996
2   674  46.7676 109.3225 4756192  83.3965   0.1513  0.22203048 50012

1 00692U 63039C   25158.90910670 -.00001591  00000-0  00000-0 0  9998
2 00692  26.3234  44.9052 5625148 213.9674 359.3292  0.22037017 12341

1 00836U 64040A   25164.93524764  .00000669  00000-0  00000-0 0  9990
2 00836  51.1352 126.2857 4636242 290.6735   0.6045  0.23917956 10127

1 00837U 64040B   25146.29620780  .00000551  00000-0  00000-0 0  9995
2 00837  48.7681 131.0869 4559902 259.4997   0.5164  0.23988113 53808

1 01458U 65058A   25165.12841732 -.00000924  00000-0  00000-0 0  9995
2 01458  25.3442  20.3461 4934823 303.4912 358.6179  0.21331816 11265

1 01459U 65058B   25156.91106827 -.00001638  00000-0  00000-0 0  9995
2 01459  41.1385  10.7885 4789719  77.3100 359.1419  0.21394714  8455

1  2765U 67040A   25165.26436463 -.00001198  00000-0  00000+0 0  9999
2  2765  38.7807  16.4307 4933505 277.3829 357.7237  0.21495213 45609

1  2766U 67040B   25160.72094879 -.00001303  00000-0  00000+0 0  9995
2  2766  34.2764  12.9498 4662048 105.4248 358.3681  0.21265920 45433

1 02770U 67040F   25163.22484635 -.00000077  00000-0  00000-0 0  9999
2 02770  17.9820 217.8865 7816166 335.0899   1.1472  0.50947178 21429

1 03623U 68116A   25161.52990527 -.00000077  00000-0  00000-0 0  9995
2 03623   4.9678 296.9053 0091182  83.6721 182.7531  0.90194348 79429

1 03674U 69011A   25161.41622831 -.00000145  00000-0  00000-0 0  9990
2 03674  10.4523 305.0225 0179487 355.2630  44.4172  0.84931779 63542

1 03692U 69013B   25161.55135729 -.00000044  00000-0  00000-0 0  9990
2 03692   0.3474  64.4878 0169460  44.9159 207.2770  0.97535396 38693

1 03947U 69045A   25161.53974771 -.00000092  00000-0  00000-0 0  9997
2 03947   4.7562 289.3325 0023391  74.6995 249.2719  0.90045043 62613

1 03954U 69046D   25159.99593119  .00000291  00000-0  00000-0 0  9996
2 03954  88.3647  37.2136 6612821  99.5489   0.6812  0.21511841 12217

1 03955U 69046E   25159.95771459  .00000596  00000-0  00000-0 0  9996
2 03955  59.1313  67.5106 8310031 137.7510   1.0869  0.21404549  6213

1 03956U 69046F   25162.15828836 -.00000912  00000-0  00000-0 0  9998
2 03956  16.3874  31.6721 8082995 266.2131 358.8503  0.46196152 19428

1 04297U 70003A   25161.46675420  .00000092  00000-0  00000-0 0  9992
2 04297   0.1474 132.8779 0010211 220.1277 317.2222  0.99155093173172

1 04366U 70027A   25162.89116127 -.00000305  00000-0  00000-0 0  9995
2 04366  87.5969   0.9935 7753526  72.3352   1.1488  0.21456810 40573

1 04881U 71006A   25161.54501503 -.00000115  00000-0  00000-0 0  9991
2 04881   5.3080 280.9215 0012486  93.2809 267.2963  0.98839702117828

1 05204U 71039A   25161.26364133 -.00000150  00000-0  00000-0 0  9991
2 05204   0.7360 288.9801 0020136 357.9520  64.5668  0.98162947202586

1 05589U 71095C   25161.39788748 -.00000047  00000-0  00000-0 0  9990
2 05589   4.2666 277.9051 0167928 177.3084 223.7400  0.97187637115819

1 06197U 72073A   25156.32617240 -.00001899  00000-0  00000-0 0  9994
2 06197  47.9187  59.7129 2309737 165.6403   2.2523  0.08265859  3628

1  6278U 72090A   25161.54906846 -.00000233  00000-0  00000+0 0  9996
2  6278   7.0932 295.8152 0016078 185.1835 115.6165  0.98829679115359

1 06796U 73058A   25161.23516861 -.00000227  00000-0  00000-0 0  9990
2 06796   8.0971 299.8838 0005560 195.4262 180.4461  0.99148194131966

1 06893U 73078A   25160.92453059 -.00001186  00000-0  00000-0 0  9999
2 06893   8.6295 123.4712 2269350 112.3198   1.7160  0.08381795 11592

1 06973U 73100A   25160.51638074 -.00000042  00000-0  00000-0 0  9991
2 06973   6.0659 280.5921 0031747 223.6179 338.6491  0.97655464116190

1 06974U 73100B   25161.55109667 -.00000047  00000-0  00000-0 0  9993
2 06974   5.6381 285.3780 0065663  74.8014 314.6441  0.97518576844001

1 06976U 73100D   25161.53462171 -.00000124  00000-0  00000-0 0  9991
2 06976   7.4717 287.7755 0263029 124.8541 157.6632  0.94996546108207

1 07298U 74033A   25161.45895703  .00000065  00000-0  00000-0 0  9990
2 07298   5.0737 257.2013 0015081  65.9465 338.2321  0.98611489116220

1  8748U 76023C   25163.43334175 -.00000540  00000-0  00000+0 0  9991
2  8748  15.3882 345.5643 0088978 186.5200  12.4923  0.19678649  4722

1 08751U 76023F   25161.31080877 -.00000010  00000-0  00000-0 0  9990
2 08751  21.0968  47.4107 0122306  95.4738 100.4071  0.98324916179554

1 08752U 76023G   25162.66240353 -.00000506  00000-0  00000-0 0  9997
2 08752  21.4245 354.9350 4372498  52.8612   0.5780  0.41540874 79999

1 08753U 76023H   25165.83088770 -.00000747  00000-0  00000-0 0  9990
2 08753  13.0730 337.3640 0317606 101.9483 359.0469  0.18714734  4728

1 08774U 76029A   25161.44044276  .00000039  00000-0  00000-0 0  9998
2 08774   9.6740 311.5034 0056466 227.2375 132.3182  0.98622182115865

1  8832U 76023J   25160.08389259 -.00000287  00000-0  00000+0 0  9994
2  8832  21.0874  47.4281 0139096  87.4576 134.8822  0.98261503113924

1 08882U 76053A   25161.15262087 -.00000162  00000-0  00000-0 0  9993
2 08882   8.5861 303.4166 0129814 325.7693  50.8206  0.95900287117593

1  9478U 76101A   25161.50857397 -.00000003  00000-0  00000+0 0  9995
2  9478   6.5881 310.7531 0103854 344.8794 221.6302  0.97589889119851

1 09785U 77005A   25161.59129382 -.00000112  00000-0  00000-0 0  9997
2 09785   8.9677 312.6953 0040942  44.4556 296.9009  0.95270056113121

1 09803U 77007A   25161.53274750 -.00000080  00000-0  00000-0 0  9998
2 09803   5.6768 287.5739 0078662  30.2707 251.0936  0.97529687 21027

1 10000U 77034A   25160.15598009 -.00000119  00000-0  00000-0 0  9995
2 10000   8.9830 295.9835 0018463 355.4692   4.5666  0.96674721161937

1 10001U 77034B   25161.16780962 -.00000103  00000-0  00000-0 0  9992
2 10001   9.6399 302.5362 0035632 149.1699 193.8097  0.95427195113979

1 10002U 77034C   25161.15236023 -.00000152  00000-0  00000-0 0  9990
2 10002   9.6021 298.1109 0285689  98.4880 286.3705  0.95555475 41593

1 10516U 77118A   25161.42961462  .00000087  00000-0  00000+0 0  9990
2 10516   8.2405 300.1102 0002700 137.0009  43.1170  0.98911971132030

1 10669U 78016A   25161.08281112 -.00000074  00000-0  00000-0 0  9994
2 10669   8.0118 295.0032 0007032 240.9746 127.6914  0.99005470750968

1 10855U 78044A   25161.54822959  .00000007  00000-0  00000-0 0  9998
2 10855   8.8068 306.6241 0007318 353.1113 358.9370  0.99139739200309

1 11115U 78106A   25161.58344855 -.00000101  00000-0  00000-0 0  9991
2 11115   9.8188 317.5654 0002748 327.2966 204.0811  0.98483429651557

1 11144U 78113A   25161.52151360 -.00000069  00000-0  00000-0 0  9995
2 11144  11.4990 317.2069 0026670 192.5747   5.1899  0.94031852108059

1 11145U 78113B   25161.51635034 -.00000010  00000-0  00000-0 0  9996
2 11145   9.0651 305.8734 0006123 173.6110  60.6195  0.98439680113409

1 11147U 78113D   25161.41317193 -.00000139  00000-0  00000-0 0  9992
2 11147  11.5903 308.4477 0255063  59.4049 334.6198  0.93756003110885

1 11353U 79038A   25161.36987412  .00000045  00000-0  00000-0 0  9994
2 11353   8.5409 305.1557 0016074  80.9782 250.1167  0.98542652166713

1 11397U 79053A   25161.58605495 -.00000009  00000-0  00000-0 0  9992
2 11397   8.0820 299.8628 0008144 281.5595 281.8663  0.98747529 22310

1 11570U 77071F   25161.51786462 -.00000018  00000-0  00000-0 0  9990
2 11570   6.6103 286.6247 0010987 143.8376  64.0226  0.97736736115762

1 11621U 79098A   25161.51877839 -.00000063  00000-0  00000-0 0  9997
2 11621  10.9835 315.4240 0008709 127.7184 100.6651  0.95598373611840

1 11622U 79098B   25161.15392407 -.00000121  00000-0  00000-0 0  9996
2 11622   9.2847 308.3029 0003382 103.8253 276.0444  0.98351894108325

1 11623U 79098C   25161.54230675 -.00000159  00000-0  00000-0 0  9999
2 11623  11.0057 308.5354 0294942  67.7438 204.0288  0.95319049119041

1 11684U 79105E   25161.44975226  .00000043  00000-0  00000-0 0  9993
2 11684   7.7522 295.4626 0016593 296.8634  54.9328  0.98684611117352

1 11728U 80016D   25161.42262675 -.00000079  00000-0  00000-0 0  9990
2 11728   8.1993 297.0900 0014852 291.1633 126.9628  0.97624559115944

1 11841U 80049A   25161.58110278 -.00000133  00000-0  00000-0 0  9991
2 11841   8.0627 298.4195 0001993 356.5074 181.2337  0.98631346229851

1 11862U 80049F   25161.47002010  .00000001  00000-0  00000-0 0  9999
2 11862   8.5295 299.2589 0029668 205.7846 169.6185  0.97938415116578

1 11941U 78073F   25161.60217351 -.00000012  00000-0  00000-0 0  9995
2 11941   7.3739 290.9648 0015605 167.9218 104.7719  0.97569398159679

1 11970U 80074C   25159.79790308 -.00000196  00000-0  00000-0 0  9999
2 11970  17.2260 316.8823 1633788 257.0280  34.8749  0.81535413 35473

1 12046U 80087A   25160.56311458 -.00000003  00000-0  00000-0 0  9997
2 12046   8.7875 307.0748 0004020 134.0335 226.0319  0.98952088126487

1 12089U 80098A   25161.11799103 -.00000099  00000-0  00000-0 0  9990
2 12089  11.8106 329.3395 0008489 298.9140 226.3369  0.98892458130047

1 12339U 81025A   25161.14931941 -.00000193  00000-0  00000-0 0  9995
2 12339   8.8910 307.5836 0017468 277.5997  77.6093  0.98830718 22156

1 12474U 81050A   25160.73586644 -.00000235  00000-0  00000-0 0  9990
2 12474  11.5264 327.0323 0002317 237.6130 125.1963  0.98854470133991

1 12544U 81057A   25161.70896611 -.00000246  00000-0  00000+0 0  9992
2 12544  10.8994 321.7311 0027853  10.3923 336.2196  0.98727131120214

1 12635U 81073A   25161.22961625 -.00000210  00000-0  00000-0 0  9998
2 12635  14.6478 311.6651 0010571 165.7632 199.7010  0.98607186129404

1 12850U 81069F   25161.58327479 -.00000099  00000-0  00000-0 0  9999
2 12850   8.9936 302.7033 0022206 179.9084   5.7180  0.97700897112597

1 13010U 81122A   25161.33671899 -.00000166  00000-0  00000-0 0  9994
2 13010  12.1332 331.2265 0115576 256.6894 351.5138  0.95039593107823

1 13086U 82019A   25161.41634008 -.00000081  00000-0  00000+0 0  9998
2 13086  10.0462 311.8753 0002527 276.2073 118.6372  0.98189957 22002
